{
  "type": "FeatureCollection",
  "features": [
    {
      "type": "Feature",
      "properties": {
        "norad_id": 58654,
        "name": "BEIDOU-3 M28 (C50)",
        "group": "beidou",
        "lat": 39.1045000383279,
        "lon": -144.93290740808644,
        "alt_km": 21527.411634948454,
        "timestamp": "2025-12-04T13:52:00.708317+00:00",
        "meta_object_name": "BEIDOU-3 M28 (C50)",
        "meta_object_id": "2023-207A",
        "meta_epoch": "2025-12-02T18:32:49.254720",
        "meta_mean_motion": 1.86229565,
        "meta_eccentricity": 0.00020071,
        "meta_inclination": 55.5759,
        "meta_ra_of_asc_node": 68.9391,
        "meta_arg_of_pericenter": 265.1815,
        "meta_mean_anomaly": 94.7983,
        "meta_ephemeris_type": 0,
        "meta_classification_type": "U",
        "meta_norad_cat_id": 58654,
        "meta_element_set_no": 999,
        "meta_rev_at_epoch": 1318,
        "meta_bstar": 0,
        "meta_mean_motion_dot": -4.9e-07,
        "meta_mean_motion_ddot": 0,
        "tle_line1": "1 58654U 23207A   25336.77279230 -.00000049  00000+0  00000+0 0  9990",
        "tle_line2": "2 58654  55.5759  68.9391 0002007 265.1815  94.7983  1.86229565 13186"
      },
      "geometry": {
        "type": "Point",
        "coordinates": [
          -144.93290740808644,
          39.1045000383279
        ]
      }
    },
    {
      "type": "Feature",
      "properties": {
        "norad_id": 58655,
        "name": "BEIDOU-3 M26 (C48)",
        "group": "beidou",
        "lat": -55.37652335175084,
        "lon": -28.589945764610462,
        "alt_km": 21524.655608859786,
        "timestamp": "2025-12-04T13:52:00.708328+00:00",
        "meta_object_name": "BEIDOU-3 M26 (C48)",
        "meta_object_id": "2023-207B",
        "meta_epoch": "2025-12-03T02:34:45.227424",
        "meta_mean_motion": 1.86231091,
        "meta_eccentricity": 0.00034591,
        "meta_inclination": 55.5782,
        "meta_ra_of_asc_node": 68.9139,
        "meta_arg_of_pericenter": 250.5367,
        "meta_mean_anomaly": 109.429,
        "meta_ephemeris_type": 0,
        "meta_classification_type": "U",
        "meta_norad_cat_id": 58655,
        "meta_element_set_no": 999,
        "meta_rev_at_epoch": 1317,
        "meta_bstar": 0,
        "meta_mean_motion_dot": -5e-07,
        "meta_mean_motion_ddot": 0,
        "tle_line1": "1 58655U 23207B   25337.10746791 -.00000050  00000+0  00000+0 0  9992",
        "tle_line2": "2 58655  55.5782  68.9139 0003459 250.5367 109.4290  1.86231091 13176"
      },
      "geometry": {
        "type": "Point",
        "coordinates": [
          -28.589945764610462,
          -55.37652335175084
        ]
      }
    },
    {
      "type": "Feature",
      "properties": {
        "norad_id": 61186,
        "name": "BEIDOU-3 M25 (C47)",
        "group": "beidou",
        "lat": 18.386739664836625,
        "lon": -37.377742672860194,
        "alt_km": 21525.629141002202,
        "timestamp": "2025-12-04T13:52:00.708339+00:00",
        "meta_object_name": "BEIDOU-3 M25 (C47)",
        "meta_object_id": "2024-168B",
        "meta_epoch": "2025-12-04T06:41:34.097568",
        "meta_mean_motion": 1.86229712,
        "meta_eccentricity": 0.00055022,
        "meta_inclination": 54.6499,
        "meta_ra_of_asc_node": 309.0133,
        "meta_arg_of_pericenter": 294.1783,
        "meta_mean_anomaly": 248.0837,
        "meta_ephemeris_type": 0,
        "meta_classification_type": "U",
        "meta_norad_cat_id": 61186,
        "meta_element_set_no": 999,
        "meta_rev_at_epoch": 815,
        "meta_bstar": 0,
        "meta_mean_motion_dot": -6.9e-07,
        "meta_mean_motion_ddot": 0,
        "tle_line1": "1 61186U 24168B   25338.27886687 -.00000069  00000+0  00000+0 0  9990",
        "tle_line2": "2 61186  54.6499 309.0133 0005502 294.1783 248.0837  1.86229712  8150"
      },
      "geometry": {
        "type": "Point",
        "coordinates": [
          -37.377742672860194,
          18.386739664836625
        ]
      }
    },
    {
      "type": "Feature",
      "properties": {
        "norad_id": 61187,
        "name": "BEIDOU-3 M27 (C49)",
        "group": "beidou",
        "lat": 18.050311030977486,
        "lon": 115.59324818947233,
        "alt_km": 21532.34555417642,
        "timestamp": "2025-12-04T13:52:00.708350+00:00",
        "meta_object_name": "BEIDOU-3 M27 (C49)",
        "meta_object_id": "2024-168C",
        "meta_epoch": "2025-12-04T01:54:08.310240",
        "meta_mean_motion": 1.86229854,
        "meta_eccentricity": 0.00022821,
        "meta_inclination": 54.6454,
        "meta_ra_of_asc_node": 309.0039,
        "meta_arg_of_pericenter": 329.4527,
        "meta_mean_anomaly": 213.9234,
        "meta_ephemeris_type": 0,
        "meta_classification_type": "U",
        "meta_norad_cat_id": 61187,
        "meta_element_set_no": 999,
        "meta_rev_at_epoch": 562,
        "meta_bstar": 0,
        "meta_mean_motion_dot": -6.8e-07,
        "meta_mean_motion_ddot": 0,
        "tle_line1": "1 61187U 24168C   25338.07926285 -.00000068  00000+0  00000+0 0  9997",
        "tle_line2": "2 61187  54.6454 309.0039 0002282 329.4527 213.9234  1.86229854  5625"
      },
      "geometry": {
        "type": "Point",
        "coordinates": [
          115.59324818947233,
          18.050311030977486
        ]
      }
    }
  ]
}